NORAD_CAT_ID,OBJECT_NAME,OBJECT_TYPE,EPOCH,MEAN_MOTION,ECCENTRICITY,INCLINATION,RA_OF_ASC_NODE,ARG_OF_PERICENTER,MEAN_ANOMALY,BSTAR,MEAN_MOTION_DOT,MEAN_MOTION_DDOT,TLE_LINE0,TLE_LINE1,TLE_LINE2,SEMIMAJOR_AXIS,PERIOD,APOGEE,PERIGEE,DECAYED
51976.0,STARLINK-3663,PAYLOAD,2024-02-21 13:06:15,15.088549,0.0001512,53.216,153.0086,90.8079,269.3087,0.00040587,6.18e-05,0.0,0 STARLINK-3663,1 51976U 22025W   24052.54601226  .00006180  00000-0  40587-3 0  9990,2 51976  53.2160 153.0086 0001512  90.8079 269.3087 15.08854900108275,6917.835,95.437,540.746,538.654,0.0
51976.0,STARLINK-3663,PAYLOAD,2024-02-22 11:21:39,15.08841305,0.0001764,53.2182,148.8446,93.9391,266.1803,3.0031e-05,1.9e-06,0.0,0 STARLINK-3663,1 51976U 22025W   24053.47337693  .00000190  00000-0  30031-4 0  9996,2 51976  53.2182 148.8446 0001764  93.9391 266.1803 15.08841305109526,6917.876,95.437,540.962,538.521,0.0
51976.0,STARLINK-3663,PAYLOAD,2024-02-22 12:57:02,15.08842367,0.0001606,53.2173,148.5475,76.9461,283.171,7.2579e-05,8.67e-06,0.0,0 STARLINK-3663,1 51976U 22025W   24053.53961726  .00000867  00000-0  72579-4 0  9997,2 51976  53.2173 148.5475 0001606  76.9461 283.1710 15.08842367108422,6917.873,95.437,540.849,538.627,0.0
51976.0,STARLINK-3663,PAYLOAD,2024-02-23 12:47:49,15.08851151,0.000167,53.2169,144.0865,78.9728,281.1452,0.00015138,2.123e-05,0.0,0 STARLINK-3663,1 51976U 22025W   24054.53321295  .00002123  00000-0  15138-3 0  9993,2 51976  53.2169 144.0865 0001670  78.9728 281.1452 15.08851151109681,6917.846,95.437,540.867,538.556,0.0
51976.0,STARLINK-3663,PAYLOAD,2024-02-23 22:20:08,15.08839999,0.0001722,53.2171,142.3025,78.0708,282.0477,8.528e-05,1.069e-05,0.0,0 STARLINK-3663,1 51976U 22025W   24054.93065652  .00001069  00000-0  85280-4 0  9993,2 51976  53.2171 142.3025 0001722  78.0708 282.0477 15.08839999108637,6917.88,95.438,540.937,538.554,0.0
51976.0,STARLINK-3663,PAYLOAD,2024-02-24 12:38:37,15.08842137,0.0001766,53.2174,139.6298,85.6382,274.4811,0.00014994,2.099e-05,0.0,0 STARLINK-3663,1 51976U 22025W   24055.52681964  .00002099  00000-0  14994-3 0  9996,2 51976  53.2174 139.6298 0001766  85.6382 274.4811 15.08842137108726,6917.874,95.437,540.961,538.517,0.0
51976.0,STARLINK-3663,PAYLOAD,2024-02-25 06:07:51,15.08842093,0.0001822,53.2172,136.3596,93.9437,266.1763,9.6906e-05,1.255e-05,0.0,0 STARLINK-3663,1 51976U 22025W   24056.25545979  .00001255  00000-0  96906-4 0  9999,2 51976  53.2172 136.3596 0001822  93.9437 266.1763 15.08842093109945,6917.874,95.437,540.999,538.479,0.0
51976.0,STARLINK-3663,PAYLOAD,2024-02-25 12:29:23,15.08850431,0.0001838,53.2172,135.171,97.6367,262.4834,0.00026488,3.931e-05,0.0,0 STARLINK-3663,1 51976U 22025W   24056.52041630  .00003931  00000-0  26488-3 0  9994,2 51976  53.2172 135.1710 0001838  97.6367 262.4834 15.08850431108874,6917.849,95.437,540.985,538.442,0.0
51976.0,STARLINK-3663,PAYLOAD,2024-02-25 22:01:43,15.08843372,0.0001576,53.2158,133.3833,90.9167,269.2006,0.00016075,2.271e-05,0.0,0 STARLINK-3663,1 51976U 22025W   24056.91785924  .00002271  00000-0  16075-3 0  9995,2 51976  53.2158 133.3833 0001576  90.9167 269.2006 15.08843372108936,6917.87,95.437,540.825,538.645,0.0
51976.0,STARLINK-3663,PAYLOAD,2024-02-26 12:20:12,15.08832287,0.0001915,53.2165,130.7084,95.9191,264.202,-1.1279e-05,-4.68e-06,0.0,0 STARLINK-3663,1 51976U 22025W   24057.51402829 -.00000468  00000-0 -11279-4 0  9992,2 51976  53.2165 130.7084 0001915  95.9191 264.2020 15.08832287110131,6917.904,95.438,541.094,538.444,0.0
51976.0,STARLINK-3663,PAYLOAD,2024-02-27 04:14:03,15.08843275,0.0001789,53.2161,127.7326,94.3884,265.7312,6.2636e-05,7.09e-06,0.0,0 STARLINK-3663,1 51976U 22025W   24058.17642542  .00000709  00000-0  62636-4 0  9992,2 51976  53.2161 127.7326 0001789  94.3884 265.7312 15.08843275110233,6917.87,95.437,540.973,538.498,0.0
51976.0,STARLINK-3663,PAYLOAD,2024-02-27 12:10:59,15.08842577,0.0001672,53.2153,126.2462,91.6214,268.497,0.00033833,5.101e-05,0.0,0 STARLINK-3663,1 51976U 22025W   24058.50762757  .00005101  00000-0  33833-3 0  9997,2 51976  53.2153 126.2462 0001672  91.6214 268.4970 15.08842577109172,6917.873,95.437,540.894,538.581,0.0
51976.0,STARLINK-3663,PAYLOAD,2024-02-27 21:43:17,15.08843513,0.0001622,53.2144,124.4618,90.0419,270.0759,0.00033967,5.122e-05,0.0,0 STARLINK-3663,1 51976U 22025W   24058.90506798  .00005122  00000-0  33967-3 0  9993,2 51976  53.2144 124.4618 0001622  90.0419 270.0759 15.08843513109232,6917.87,95.437,540.857,538.613,0.0
51976.0,STARLINK-3663,PAYLOAD,2024-02-28 10:26:22,15.08846857,0.000165,53.2153,122.0809,96.125,263.993,0.0003402,5.131e-05,0.0,0 STARLINK-3663,1 51976U 22025W   24059.43498653  .00005131  00000-0  34020-3 0  9993,2 51976  53.2153 122.0809 0001650  96.1250 263.9930 15.08846857110428,6917.859,95.437,540.866,538.583,0.0
51976.0,STARLINK-3663,PAYLOAD,2024-02-28 13:37:08,15.08850677,0.0001703,53.2154,121.4846,99.112,261.0064,0.00031625,4.75e-05,0.0,0 STARLINK-3663,1 51976U 22025W   24059.56746347  .00004750  00000-0  31625-3 0  9997,2 51976  53.2154 121.4846 0001703  99.1120 261.0064 15.08850677109331,6917.848,95.437,540.891,538.535,0.0
51976.0,STARLINK-3663,PAYLOAD,2024-02-29 10:17:09,15.08844825,0.000161,53.2157,117.6202,91.796,268.3217,9.7311e-05,1.261e-05,0.0,0 STARLINK-3663,1 51976U 22025W   24060.42858556  .00001261  00000-0  97311-4 0  9999,2 51976  53.2157 117.6202 0001610  91.7960 268.3217 15.08844825110570,6917.866,95.437,540.844,538.617,0.0
51976.0,STARLINK-3663,PAYLOAD,2024-02-29 13:27:55,15.08847562,0.000168,53.2155,117.0249,92.2127,267.9057,0.0001316,1.807e-05,0.0,0 STARLINK-3663,1 51976U 22025W   24060.56106377  .00001807  00000-0  13160-3 0  9996,2 51976  53.2155 117.0249 0001680  92.2127 267.9057 15.08847562109487,6917.857,95.437,540.884,538.56,0.0
51976.0,STARLINK-3663,PAYLOAD,2024-03-01 11:43:19,15.08849629,0.0001645,53.2155,112.8627,90.7295,269.3886,0.00010065,1.315e-05,0.0,0 STARLINK-3663,1 51976U 22025W   24061.48842247  .00001315  00000-0  10065-3 0  9996,2 51976  53.2155 112.8627 0001645  90.7295 269.3886 15.08849629109628,6917.851,95.437,540.854,538.578,0.0
51976.0,STARLINK-3663,PAYLOAD,2024-03-02 09:58:43,15.08848806,0.0001666,53.2155,108.7004,87.9676,272.1507,0.00015048,2.108e-05,0.0,0 STARLINK-3663,1 51976U 22025W   24062.41578145  .00002108  00000-0  15048-3 0  9990,2 51976  53.2155 108.7004 0001666  87.9676 272.1507 15.08848806110872,6917.853,95.437,540.871,538.566,0.0
51976.0,STARLINK-3663,PAYLOAD,2024-03-03 01:52:35,15.0884014,0.0001871,53.2165,105.7287,102.2478,257.8723,9.558e-05,1.233e-05,0.0,0 STARLINK-3663,1 51976U 22025W   24063.07818441  .00001233  00000-0  95580-4 0  9997,2 51976  53.2165 105.7287 0001871 102.2478 257.8723 15.08840140110976,6917.88,95.438,541.039,538.451,0.0
51976.0,STARLINK-3663,PAYLOAD,2024-03-03 09:49:31,15.08836662,0.0001738,53.2164,104.2398,89.0133,271.1058,-4.1964e-05,-9.56e-06,0.0,0 STARLINK-3663,1 51976U 22025W   24063.40938721 -.00000956  00000-0 -41964-4 0  9998,2 51976  53.2164 104.2398 0001738  89.0133 271.1058 15.08836662109910,6917.891,95.438,540.958,538.553,0.0
51976.0,STARLINK-3663,PAYLOAD,2024-03-04 01:43:22,15.08789568,0.0002018,53.2174,101.2656,94.8723,265.2499,0.00085818,0.00013378,0.0,0 STARLINK-3663,1 51976U 22025W   24064.07179229  .00013378  00000-0  85818-3 0  9997,2 51976  53.2174 101.2656 0002018  94.8723 265.2499 15.08789568111127,6918.035,95.441,541.296,538.503,0.0
51976.0,STARLINK-3663,PAYLOAD,2024-03-04 11:15:40,15.08858199,0.0001643,53.216,99.4801,97.9966,262.1213,0.00023513,3.458e-05,0.0,0 STARLINK-3663,1 51976U 22025W   24064.46921502  .00003458  00000-0  23513-3 0  9991,2 51976  53.2160  99.4801 0001643  97.9966 262.1213 15.08858199111181,6917.825,95.436,540.826,538.553,0.0
51976.0,STARLINK-3663,PAYLOAD,2024-03-04 19:12:36,15.0883459,0.0001435,53.2165,97.9944,90.7193,269.3964,-8.1719e-06,-4.18e-06,0.0,0 STARLINK-3663,1 51976U 22025W   24064.80042661 -.00000418  00000-0 -81719-5 0  9998,2 51976  53.2165  97.9944 0001435  90.7193 269.3964 15.08834590111236,6917.897,95.438,540.755,538.769,0.0
51976.0,STARLINK-3663,PAYLOAD,2024-03-05 11:06:29,15.08826806,0.0001786,53.2162,95.02,87.8823,272.2374,-6.5927e-05,-1.337e-05,0.0,0 STARLINK-3663,1 51976U 22025W   24065.46283736 -.00001337  00000-0 -65927-4 0  9994,2 51976  53.2162  95.0200 0001786  87.8823 272.2374 15.08826806110220,6917.921,95.438,541.021,538.55,0.0
51976.0,STARLINK-3663,PAYLOAD,2024-03-06 09:21:52,15.08854187,0.0001737,53.2156,90.8567,98.8479,261.271,0.00093884,0.00014691,0.0,0 STARLINK-3663,1 51976U 22025W   24066.39019250  .00014691  00000-0  93884-3 0  9992,2 51976  53.2156  90.8567 0001737  98.8479 261.2710 15.08854187111470,6917.837,95.437,540.904,538.5,0.0
51976.0,STARLINK-3663,PAYLOAD,2024-03-06 18:54:11,15.08845541,0.0001713,53.2178,89.0698,101.1332,258.9853,0.0003406,5.138e-05,0.0,0 STARLINK-3663,1 51976U 22025W   24066.78763285  .00005138  00000-0  34060-3 0  9996,2 51976  53.2178  89.0698 0001713 101.1332 258.9853 15.08845541111531,6917.863,95.437,540.913,538.543,0.0
51976.0,STARLINK-3663,PAYLOAD,2024-03-07 10:48:03,15.08840572,0.0001863,53.2175,86.096,102.2614,257.8587,0.00014964,2.094e-05,0.0,0 STARLINK-3663,1 51976U 22025W   24067.45003514  .00002094  00000-0  14964-3 0  9992,2 51976  53.2175  86.0960 0001863 102.2614 257.8587 15.08840572110527,6917.879,95.438,541.032,538.455,0.0
51976.0,STARLINK-3663,PAYLOAD,2024-03-08 01:06:31,15.08840906,0.0001761,53.2168,83.4195,103.9704,256.1484,0.00015752,2.22e-05,0.0,0 STARLINK-3663,1 51976U 22025W   24068.04619694  .00002220  00000-0  15752-3 0  9997,2 51976  53.2168  83.4195 0001761 103.9704 256.1484 15.08840906111727,6917.878,95.437,540.961,538.524,0.0
51976.0,STARLINK-3663,PAYLOAD,2024-03-08 07:28:03,15.08847032,0.0001754,53.2161,82.232,97.3621,262.757,0.00023258,3.416e-05,0.0,0 STARLINK-3663,1 51976U 22025W   24068.31115494  .00003416  00000-0  23258-3 0  9994,2 51976  53.2161  82.2320 0001754  97.3621 262.7570 15.08847032110650,6917.859,95.437,540.937,538.511,0.0
